CSS (TIANHE)            
1 48274U 21035A   24134.47638084  .00054564  00000+0  55982-3 0  9995
2 48274  41.4683 295.1444 0003543 332.2592  27.8059 15.64057207173664
